{
  "type": "FeatureCollection",
  "features": [
    {
      "type": "Feature",
      "properties": {
        "norad_id": 66580,
        "name": "STARLINK-35872",
        "group": "last-30-days",
        "lat": 0.5379313082770172,
        "lon": -47.097306543546715,
        "alt_km": 414.9212236189378,
        "timestamp": "2025-12-10T14:53:35.946877+00:00",
        "meta_object_name": "STARLINK-35872",
        "meta_object_id": "2025-268Z",
        "meta_epoch": "2025-12-10T06:00:02.000160",
        "meta_mean_motion": 15.50581986,
        "meta_eccentricity": 0.00017755,
        "meta_inclination": 43.0007,
        "meta_ra_of_asc_node": 135.6477,
        "meta_arg_of_pericenter": 266.3807,
        "meta_mean_anomaly": 1.9864,
        "meta_ephemeris_type": 0,
        "meta_classification_type": "U",
        "meta_norad_cat_id": 66580,
        "meta_element_set_no": 999,
        "meta_rev_at_epoch": 426,
        "meta_bstar": -0.0015244078,
        "meta_mean_motion_dot": -0.00088777,
        "meta_mean_motion_ddot": 0,
        "tle_line1": "1 66580U 25268Z   25344.25002315 -.00088777  00000+0 -15244-2 0  9990",
        "tle_line2": "2 66580  43.0007 135.6477 0001775 266.3807   1.9864 15.50581986  4264"
      },
      "geometry": {
        "type": "Point",
        "coordinates": [
          -47.097306543546715,
          0.5379313082770172
        ]
      }
    },
    {
      "type": "Feature",
      "properties": {
        "norad_id": 66581,
        "name": "STARLINK-35744",
        "group": "last-30-days",
        "lat": -0.8091792613815172,
        "lon": -45.657237256978085,
        "alt_km": 415.0717270249397,
        "timestamp": "2025-12-10T14:53:35.946886+00:00",
        "meta_object_name": "STARLINK-35744",
        "meta_object_id": "2025-268AA",
        "meta_epoch": "2025-12-10T06:00:02.000160",
        "meta_mean_motion": 15.50683084,
        "meta_eccentricity": 0.0001599,
        "meta_inclination": 43.0007,
        "meta_ra_of_asc_node": 135.6422,
        "meta_arg_of_pericenter": 264.9614,
        "meta_mean_anomaly": 5.3192,
        "meta_ephemeris_type": 0,
        "meta_classification_type": "U",
        "meta_norad_cat_id": 66581,
        "meta_element_set_no": 999,
        "meta_rev_at_epoch": 422,
        "meta_bstar": -0.0040940466,
        "meta_mean_motion_dot": -0.00234347,
        "meta_mean_motion_ddot": 0,
        "tle_line1": "1 66581U 25268AA  25344.25002315 -.00234347  00000+0 -40940-2 0  9998",
        "tle_line2": "2 66581  43.0007 135.6422 0001599 264.9614   5.3192 15.50683084  4229"
      },
      "geometry": {
        "type": "Point",
        "coordinates": [
          -45.657237256978085,
          -0.8091792613815172
        ]
      }
    },
    {
      "type": "Feature",
      "properties": {
        "norad_id": 66582,
        "name": "STARLINK-35746",
        "group": "last-30-days",
        "lat": -2.075561968604852,
        "lon": -44.30195092437935,
        "alt_km": 415.1341119750714,
        "timestamp": "2025-12-10T14:53:35.946895+00:00",
        "meta_object_name": "STARLINK-35746",
        "meta_object_id": "2025-268AB",
        "meta_epoch": "2025-12-10T06:00:02.000160",
        "meta_mean_motion": 15.50616001,
        "meta_eccentricity": 0.00018924,
        "meta_inclination": 43.0005,
        "meta_ra_of_asc_node": 135.637,
        "meta_arg_of_pericenter": 266.8465,
        "meta_mean_anomaly": 5.3219,
        "meta_ephemeris_type": 0,
        "meta_classification_type": "U",
        "meta_norad_cat_id": 66582,
        "meta_element_set_no": 999,
        "meta_rev_at_epoch": 426,
        "meta_bstar": -0.0019187853,
        "meta_mean_motion_dot": -0.00111472,
        "meta_mean_motion_ddot": 0,
        "tle_line1": "1 66582U 25268AB  25344.25002315 -.00111472  00000+0 -19188-2 0  9992",
        "tle_line2": "2 66582  43.0005 135.6370 0001892 266.8465   5.3219 15.50616001  4260"
      },
      "geometry": {
        "type": "Point",
        "coordinates": [
          -44.30195092437935,
          -2.075561968604852
        ]
      }
    },
    {
      "type": "Feature",
      "properties": {
        "norad_id": 66583,
        "name": "STARLINK-35941",
        "group": "last-30-days",
        "lat": -3.382480066228815,
        "lon": -42.89874102806285,
        "alt_km": 415.3159090233612,
        "timestamp": "2025-12-10T14:53:35.946903+00:00",
        "meta_object_name": "STARLINK-35941",
        "meta_object_id": "2025-268AC",
        "meta_epoch": "2025-12-10T06:00:02.000160",
        "meta_mean_motion": 15.50556215,
        "meta_eccentricity": 0.00018034,
        "meta_inclination": 43.0005,
        "meta_ra_of_asc_node": 135.6325,
        "meta_arg_of_pericenter": 268.8936,
        "meta_mean_anomaly": 5.2369,
        "meta_ephemeris_type": 0,
        "meta_classification_type": "U",
        "meta_norad_cat_id": 66583,
        "meta_element_set_no": 999,
        "meta_rev_at_epoch": 426,
        "meta_bstar": -0.00066805791,
        "meta_mean_motion_dot": -0.00039306,
        "meta_mean_motion_ddot": 0,
        "tle_line1": "1 66583U 25268AC  25344.25002315 -.00039306  00000+0 -66806-3 0  9998",
        "tle_line2": "2 66583  43.0005 135.6325 0001803 268.8936   5.2369 15.50556215  4263"
      },
      "geometry": {
        "type": "Point",
        "coordinates": [
          -42.89874102806285,
          -3.382480066228815
        ]
      }
    },
    {
      "type": "Feature",
      "properties": {
        "norad_id": 66584,
        "name": "STARLINK-35939",
        "group": "last-30-days",
        "lat": -4.682533947268205,
        "lon": -41.49689975149658,
        "alt_km": 415.39779149051355,
        "timestamp": "2025-12-10T14:53:35.946912+00:00",
        "meta_object_name": "STARLINK-35939",
        "meta_object_id": "2025-268AD",
        "meta_epoch": "2025-12-10T06:00:02.000160",
        "meta_mean_motion": 15.50567273,
        "meta_eccentricity": 0.00018282,
        "meta_inclination": 43.0006,
        "meta_ra_of_asc_node": 135.6282,
        "meta_arg_of_pericenter": 267.1247,
        "meta_mean_anomaly": 8.9118,
        "meta_ephemeris_type": 0,
        "meta_classification_type": "U",
        "meta_norad_cat_id": 66584,
        "meta_element_set_no": 999,
        "meta_rev_at_epoch": 426,
        "meta_bstar": -0.00094526211,
        "meta_mean_motion_dot": -0.00055384,
        "meta_mean_motion_ddot": 0,
        "tle_line1": "1 66584U 25268AD  25344.25002315 -.00055384  00000+0 -94526-3 0  9993",
        "tle_line2": "2 66584  43.0006 135.6282 0001828 267.1247   8.9118 15.50567273  4269"
      },
      "geometry": {
        "type": "Point",
        "coordinates": [
          -41.49689975149658,
          -4.682533947268205
        ]
      }
    },
    {
      "type": "Feature",
      "properties": {
        "norad_id": 66585,
        "name": "STARLINK-35963",
        "group": "last-30-days",
        "lat": -5.983639208385419,
        "lon": -40.08585438873062,
        "alt_km": 415.548239039299,
        "timestamp": "2025-12-10T14:53:35.946921+00:00",
        "meta_object_name": "STARLINK-35963",
        "meta_object_id": "2025-268AE",
        "meta_epoch": "2025-12-10T06:00:02.000160",
        "meta_mean_motion": 15.50555923,
        "meta_eccentricity": 0.00015795,
        "meta_inclination": 43.0005,
        "meta_ra_of_asc_node": 135.6236,
        "meta_arg_of_pericenter": 269.166,
        "meta_mean_anomaly": 8.7874,
        "meta_ephemeris_type": 0,
        "meta_classification_type": "U",
        "meta_norad_cat_id": 66585,
        "meta_element_set_no": 999,
        "meta_rev_at_epoch": 426,
        "meta_bstar": -0.00046929219,
        "meta_mean_motion_dot": -0.00027753,
        "meta_mean_motion_ddot": 0,
        "tle_line1": "1 66585U 25268AE  25344.25002315 -.00027753  00000+0 -46929-3 0  9997",
        "tle_line2": "2 66585  43.0005 135.6236 0001579 269.1660   8.7874 15.50555923  4268"
      },
      "geometry": {
        "type": "Point",
        "coordinates": [
          -40.08585438873062,
          -5.983639208385419
        ]
      }
    },
    {
      "type": "Feature",
      "properties": {
        "norad_id": 66586,
        "name": "TJS-21",
        "group": "last-30-days",
        "lat": 42.61180180456422,
        "lon": -45.07045990352148,
        "alt_km": 22992.889726371923,
        "timestamp": "2025-12-10T14:53:35.946932+00:00",
        "meta_object_name": "TJS-21",
        "meta_object_id": "2025-269A",
        "meta_epoch": "2025-12-09T17:35:27.978144",
        "meta_mean_motion": 2.00565752,
        "meta_eccentricity": 0.68056573,
        "meta_inclination": 63.268,
        "meta_ra_of_asc_node": 162.6671,
        "meta_arg_of_pericenter": 269.7843,
        "meta_mean_anomaly": 18.6559,
        "meta_ephemeris_type": 0,
        "meta_classification_type": "U",
        "meta_norad_cat_id": 66586,
        "meta_element_set_no": 999,
        "meta_rev_at_epoch": 37,
        "meta_bstar": -0.041606579,
        "meta_mean_motion_dot": 1.08e-05,
        "meta_mean_motion_ddot": 0,
        "tle_line1": "1 66586U 25269A   25343.73296271  .00001080  00000+0 -41607-1 0  9997",
        "tle_line2": "2 66586  63.2680 162.6671 6805657 269.7843  18.6559  2.00565752   379"
      },
      "geometry": {
        "type": "Point",
        "coordinates": [
          -45.07045990352148,
          42.61180180456422
        ]
      }
    }
  ]
}